IRIDIUM 39              
1 25042U 97069D   25231.37462638  .00000594  00000+0  14987-3 0  9995
2 25042  86.3967 184.0578 0020161  94.8897 265.4610 14.49283271458116
IRIDIUM 38              
1 25043U 97069E   25231.41575704  .00000384  00000+0  12017-3 0  9999
2 25043  86.3975 206.5597 0000732 141.7888 218.3362 14.38160619455049
IRIDIUM 42              
1 25077U 97077A   25231.49965536  .00000392  00000+0  12713-3 0  9991
2 25077  86.3967 212.7682 0001489  87.8097 272.3270 14.36392562450284
IRIDIUM 44              
1 25078U 97077B   25231.42219554  .00000415  00000+0  12487-3 0  9991
2 25078  86.3998 194.5732 0002897 128.3051 231.8409 14.40284453452805
IRIDIUM 45              
1 25104U 97082A   25231.45004926  .00019709  00000+0  66287-3 0  9998
2 25104  86.3585  17.1171 0113922  94.3518 267.0754 15.24538210461671
